start=new Date('2022-10-20T00:00:00.000Z').valueOf();
sats=[{"INCLINATION":"53.2188","REV_AT_EPOCH":"4362","DECAY_DATE":null,"SEMIMAJOR_AXIS":"6917.873","EPOCH":"2022-10-19T09:52:58.398528","EPHEMERIS_TYPE":"0","ECCENTRICITY":"0.00019630","MEAN_ELEMENT_THEORY":"SGP4","RA_OF_ASC_NODE":"323.4904","TLE_LINE1":"1 50823U 22001W   22292.41178702  .00001343  00000-0  10244-3 0  9995","SITE":"AFETR","RCS_SIZE":"LARGE","GP_ID":"215582338","BSTAR":"0.00010244000000","CLASSIFICATION_TYPE":"U","NORAD_CAT_ID":"50823","COUNTRY_CODE":"US","ARG_OF_PERICENTER":"56.0393","CENTER_NAME":"EARTH","REF_FRAME":"TEME","OBJECT_TYPE":"PAYLOAD","FILE":"3623062","LAUNCH_DATE":"2022-01-06","ELEMENT_SET_NO":"999","TIME_SYSTEM":"UTC","MEAN_MOTION":"15.08842476","MEAN_MOTION_DOT":"0.00001343","OBJECT_NAME":"STARLINK-3334","MEAN_ANOMALY":"304.0786","OBJECT_ID":"2022-001W","APOAPSIS":"541.096","TLE_LINE2":"2 50823  53.2188 323.4904 0001963  56.0393 304.0786 15.08842476 43625","PERIAPSIS":"538.380","PERIOD":"95.437","MEAN_MOTION_DDOT":"0.0000000000000"},{"MEAN_MOTION_DOT":"0.00002300","OBJECT_NAME":"STARLINK-3340","MEAN_ANOMALY":"327.1539","OBJECT_ID":"2022-001X","APOAPSIS":"541.348","TLE_LINE2":"2 50824  53.2168 322.7634 0002335  32.9599 327.1539 15.08844242 43648","PERIAPSIS":"538.117","PERIOD":"95.437","MEAN_MOTION_DDOT":"0.0000000000000","CENTER_NAME":"EARTH","OBJECT_TYPE":"PAYLOAD","REF_FRAME":"TEME","FILE":"3623738","LAUNCH_DATE":"2022-01-06","ELEMENT_SET_NO":"999","TIME_SYSTEM":"UTC","MEAN_MOTION":"15.08844242","MEAN_ELEMENT_THEORY":"SGP4","RA_OF_ASC_NODE":"322.7634","TLE_LINE1":"1 50824U 22001X   22292.57371183  .00002300  00000-0  16255-3 0  9993","SITE":"AFETR","RCS_SIZE":"LARGE","BSTAR":"0.00016255000000","GP_ID":"215623118","CLASSIFICATION_TYPE":"U","NORAD_CAT_ID":"50824","COUNTRY_CODE":"US","ARG_OF_PERICENTER":"32.9599","INCLINATION":"53.2168","REV_AT_EPOCH":"4364","SEMIMAJOR_AXIS":"6917.867","DECAY_DATE":null,"EPOCH":"2022-10-19T13:46:08.702112","EPHEMERIS_TYPE":"0","ECCENTRICITY":"0.00023350"},{"GP_ID":"215622370","BSTAR":"0.00018390000000","ARG_OF_PERICENTER":"29.3081","COUNTRY_CODE":"US","NORAD_CAT_ID":"50825","CLASSIFICATION_TYPE":"U","TLE_LINE1":"1 50825U 22001Y   22292.58106781  .00002640  00000-0  18390-3 0  9994","MEAN_ELEMENT_THEORY":"SGP4","RA_OF_ASC_NODE":"322.7254","RCS_SIZE":"LARGE","SITE":"AFETR","ECCENTRICITY":"0.00024650","EPHEMERIS_TYPE":"0","EPOCH":"2022-10-19T13:56:44.258784","DECAY_DATE":null,"SEMIMAJOR_AXIS":"6917.885","REV_AT_EPOCH":"4364","INCLINATION":"53.2167","PERIOD":"95.438","PERIAPSIS":"538.045","TLE_LINE2":"2 50825  53.2167 322.7254 0002465  29.3081 330.8049 15.08838485 43645","MEAN_MOTION_DDOT":"0.0000000000000","MEAN_MOTION_DOT":"0.00002640","APOAPSIS":"541.455","OBJECT_ID":"2022-001Y","MEAN_ANOMALY":"330.8049","OBJECT_NAME":"STARLINK-3332","MEAN_MOTION":"15.08838485","TIME_SYSTEM":"UTC","FILE":"3623738","REF_FRAME":"TEME","OBJECT_TYPE":"PAYLOAD","CENTER_NAME":"EARTH","ELEMENT_SET_NO":"999","LAUNCH_DATE":"2022-01-06"},{"REF_FRAME":"TEME","OBJECT_TYPE":"PAYLOAD","FILE":"3623062","CENTER_NAME":"EARTH","ELEMENT_SET_NO":"999","LAUNCH_DATE":"2022-01-06","MEAN_MOTION":"15.08835063","TIME_SYSTEM":"UTC","MEAN_MOTION_DOT":"-0.00000180","APOAPSIS":"541.285","OBJECT_ID":"2022-001Z","OBJECT_NAME":"STARLINK-3337","MEAN_ANOMALY":"319.5681","PERIOD":"95.438","PERIAPSIS":"538.236","TLE_LINE2":"2 50826  53.2175 323.1057 0002204  40.5475 319.5681 15.08835063 43638","MEAN_MOTION_DDOT":"0.0000000000000","REV_AT_EPOCH":"4363","SEMIMAJOR_AXIS":"6917.895","DECAY_DATE":null,"INCLINATION":"53.2175","EPOCH":"2022-10-19T11:49:33.255264","EPHEMERIS_TYPE":"0","ECCENTRICITY":"0.00022040","TLE_LINE1":"1 50826U 22001Z   22292.49274601 -.00000180  00000-0  68293-5 0  9999","MEAN_ELEMENT_THEORY":"SGP4","RA_OF_ASC_NODE":"323.1057","SITE":"AFETR","RCS_SIZE":"LARGE","GP_ID":"215582587","BSTAR":"0.00000682930000","NORAD_CAT_ID":"50826","CLASSIFICATION_TYPE":"U","COUNTRY_CODE":"US","ARG_OF_PERICENTER":"40.5475"},{"MEAN_MOTION":"15.08837890","TIME_SYSTEM":"UTC","REF_FRAME":"TEME","OBJECT_TYPE":"PAYLOAD","FILE":"3623062","CENTER_NAME":"EARTH","ELEMENT_SET_NO":"999","LAUNCH_DATE":"2022-01-06","PERIAPSIS":"538.253","PERIOD":"95.438","TLE_LINE2":"2 50827  53.2174 323.2731 0002166  38.6940 321.4207 15.08837890 43625","MEAN_MOTION_DDOT":"0.0000000000000","MEAN_MOTION_DOT":"-0.00000910","APOAPSIS":"541.250","OBJECT_ID":"2022-001AA","OBJECT_NAME":"STARLINK-3329","MEAN_ANOMALY":"321.4207","EPOCH":"2022-10-19T11:01:52.327488","ECCENTRICITY":"0.00021660","EPHEMERIS_TYPE":"0","REV_AT_EPOCH":"4362","DECAY_DATE":null,"SEMIMAJOR_AXIS":"6917.887","INCLINATION":"53.2174","GP_ID":"215582838","BSTAR":"-0.00003904400000","CLASSIFICATION_TYPE":"U","NORAD_CAT_ID":"50827","ARG_OF_PERICENTER":"38.6940","COUNTRY_CODE":"US","TLE_LINE1":"1 50827U 22001AA  22292.45963342 -.00000910  00000-0 -39044-4 0  9996","RA_OF_ASC_NODE":"323.2731","MEAN_ELEMENT_THEORY":"SGP4","SITE":"AFETR","RCS_SIZE":"LARGE"},{"OBJECT_NAME":"STARLINK-3290","MEAN_ANOMALY":"326.6612","APOAPSIS":"541.868","OBJECT_ID":"2022-001AB","MEAN_MOTION_DOT":"0.00006863","MEAN_MOTION_DDOT":"0.0000000000000","TLE_LINE2":"2 50828  53.2167 322.6921 0003073  33.4574 326.6612 15.08841095 43490","PERIOD":"95.437","PERIAPSIS":"537.616","LAUNCH_DATE":"2022-01-06","ELEMENT_SET_NO":"999","CENTER_NAME":"EARTH","REF_FRAME":"TEME","OBJECT_TYPE":"PAYLOAD","FILE":"3623738","TIME_SYSTEM":"UTC","MEAN_MOTION":"15.08841095","SITE":"AFETR","RCS_SIZE":"LARGE","RA_OF_ASC_NODE":"322.6921","MEAN_ELEMENT_THEORY":"SGP4","TLE_LINE1":"1 50828U 22001AB  22292.58937842  .00006863  00000-0  44888-3 0  9999","CLASSIFICATION_TYPE":"U","NORAD_CAT_ID":"50828","COUNTRY_CODE":"US","ARG_OF_PERICENTER":"33.4574","GP_ID":"215623618","BSTAR":"0.00044888000000","INCLINATION":"53.2167","REV_AT_EPOCH":"4349","DECAY_DATE":null,"SEMIMAJOR_AXIS":"6917.877","EPOCH":"2022-10-19T14:08:42.295488","EPHEMERIS_TYPE":"0","ECCENTRICITY":"0.00030730"},{"MEAN_MOTION_DOT":"0.00000939","OBJECT_ID":"2022-001AC","APOAPSIS":"541.319","OBJECT_NAME":"STARLINK-3294","MEAN_ANOMALY":"326.0762","PERIOD":"95.438","PERIAPSIS":"538.198","TLE_LINE2":"2 50829  53.2186 323.2382 0002256  34.0374 326.0762 15.08835791 43628","MEAN_MOTION_DDOT":"0.0000000000000","OBJECT_TYPE":"PAYLOAD","REF_FRAME":"TEME","FILE":"3623062","CENTER_NAME":"EARTH","ELEMENT_SET_NO":"999","LAUNCH_DATE":"2022-01-06","MEAN_MOTION":"15.08835791","TIME_SYSTEM":"UTC","TLE_LINE1":"1 50829U 22001AC  22292.46698461  .00000939  00000-0  77133-4 0  9996","RA_OF_ASC_NODE":"323.2382","MEAN_ELEMENT_THEORY":"SGP4","SITE":"AFETR","RCS_SIZE":"LARGE","GP_ID":"215581835","BSTAR":"0.00007713300000","NORAD_CAT_ID":"50829","CLASSIFICATION_TYPE":"U","ARG_OF_PERICENTER":"34.0374","COUNTRY_CODE":"US","REV_AT_EPOCH":"4362","DECAY_DATE":null,"SEMIMAJOR_AXIS":"6917.893","INCLINATION":"53.2186","EPOCH":"2022-10-19T11:12:27.470304","ECCENTRICITY":"0.00022560","EPHEMERIS_TYPE":"0"},{"TLE_LINE2":"2 50830  53.2156 333.1668 0002430  29.5083 330.6046 15.08840048 43496","PERIAPSIS":"538.064","PERIOD":"95.438","MEAN_MOTION_DDOT":"0.0000000000000","MEAN_MOTION_DOT":"0.00001361","MEAN_ANOMALY":"330.6046","OBJECT_NAME":"STARLINK-3278","APOAPSIS":"541.426","OBJECT_ID":"2022-001AD","TIME_SYSTEM":"UTC","MEAN_MOTION":"15.08840048","CENTER_NAME":"EARTH","FILE":"3623062","OBJECT_TYPE":"PAYLOAD","REF_FRAME":"TEME","LAUNCH_DATE":"2022-01-06","ELEMENT_SET_NO":"999","BSTAR":"0.00010361000000","GP_ID":"215582087","COUNTRY_CODE":"US","ARG_OF_PERICENTER":"29.5083","CLASSIFICATION_TYPE":"U","NORAD_CAT_ID":"50830","RA_OF_ASC_NODE":"333.1668","MEAN_ELEMENT_THEORY":"SGP4","TLE_LINE1":"1 50830U 22001AD  22292.48446332  .00001361  00000-0  10361-3 0  9997","RCS_SIZE":"LARGE","SITE":"AFETR","EPHEMERIS_TYPE":"0","ECCENTRICITY":"0.00024300","EPOCH":"2022-10-19T11:37:37.630848","INCLINATION":"53.2156","SEMIMAJOR_AXIS":"6917.880","DECAY_DATE":null,"REV_AT_EPOCH":"4349"},{"COUNTRY_CODE":"US","ARG_OF_PERICENTER":"34.4794","CLASSIFICATION_TYPE":"U","NORAD_CAT_ID":"50831","BSTAR":"0.00004998000000","GP_ID":"215582339","RCS_SIZE":"LARGE","SITE":"AFETR","TLE_LINE1":"1 50831U 22001AE  22292.49002405  .00000507  00000-0  49980-4 0  9999","RA_OF_ASC_NODE":"323.1276","MEAN_ELEMENT_THEORY":"SGP4","EPHEMERIS_TYPE":"0","ECCENTRICITY":"0.00023590","EPOCH":"2022-10-19T11:45:38.077920","DECAY_DATE":null,"SEMIMAJOR_AXIS":"6917.899","REV_AT_EPOCH":"4363","INCLINATION":"53.2191","MEAN_MOTION_DDOT":"0.0000000000000","PERIAPSIS":"538.132","PERIOD":"95.438","TLE_LINE2":"2 50831  53.2191 323.1276 0002359  34.4794 325.6351 15.08834072 43633","OBJECT_ID":"2022-001AE","APOAPSIS":"541.395","MEAN_ANOMALY":"325.6351","OBJECT_NAME":"STARLINK-3299","MEAN_MOTION_DOT":"0.00000507","MEAN_MOTION":"15.08834072","TIME_SYSTEM":"UTC","ELEMENT_SET_NO":"999","LAUNCH_DATE":"2022-01-06","FILE":"3623062","REF_FRAME":"TEME","OBJECT_TYPE":"PAYLOAD","CENTER_NAME":"EARTH"},{"BSTAR":"0.00010982000000","GP_ID":"215596356","NORAD_CAT_ID":"50832","CLASSIFICATION_TYPE":"U","COUNTRY_CODE":"US","ARG_OF_PERICENTER":"46.7416","MEAN_ELEMENT_THEORY":"SGP4","RA_OF_ASC_NODE":"333.7729","TLE_LINE1":"1 50832U 22001AF  22292.34830710  .00001460  00000-0  10982-3 0  9990","SITE":"AFETR","RCS_SIZE":"LARGE","EPOCH":"2022-10-19T08:21:33.733440","EPHEMERIS_TYPE":"0","ECCENTRICITY":"0.00019240","INCLINATION":"53.2181","REV_AT_EPOCH":"4472","DECAY_DATE":null,"SEMIMAJOR_AXIS":"6917.901","TLE_LINE2":"2 50832  53.2181 333.7729 0001924  46.7416 313.3736 15.08833310 44723","PERIAPSIS":"538.435","PERIOD":"95.438","MEAN_MOTION_DDOT":"0.0000000000000","MEAN_MOTION_DOT":"0.00001460","OBJECT_NAME":"STARLINK-3328","MEAN_ANOMALY":"313.3736","APOAPSIS":"541.097","OBJECT_ID":"2022-001AF","TIME_SYSTEM":"UTC","MEAN_MOTION":"15.08833310","CENTER_NAME":"EARTH","OBJECT_TYPE":"PAYLOAD","REF_FRAME":"TEME","FILE":"3623584","LAUNCH_DATE":"2022-01-06","ELEMENT_SET_NO":"999"}];
